STARLINK-11636 [DTC]    
1 63194U 25048M   26125.94189498  .00198030  00000+0  15094-2 0  9991
2 63194  43.0028 334.9472 0002919 235.8152 124.2439 15.70853039 67527
STARLINK-11631 [DTC]    
1 63195U 25048N   26126.91690012  .00164174  00000+0  12552-2 0  9997
2 63195  42.9980 329.3805 0001206 311.8302  48.2462 15.70889973 67674
STARLINK-32946          
1 63196U 25048P   26126.34250207  .00013365  00000+0  49419-3 0  9991
2 63196  42.9999 123.7338 0001472 273.3422  86.7261 15.27588968 65867
STARLINK-32960          
1 63197U 25048Q   26126.05573246  .00016828  00000+0  61950-3 0  9992
2 63197  43.0001 121.5082 0001256 255.2708 104.8004 15.27586635 65868
STARLINK-32904          
1 63198U 25048R   26126.47489760  .00020220  00000+0  74231-3 0  9993
2 63198  43.0008 118.6317 0001486 269.4830  90.5851 15.27579245 65930
STARLINK-32931          
1 63199U 25048S   26126.43391251  .00016040  00000+0  59133-3 0  9996
2 63199  43.0025 119.1895 0001680 255.7598 104.3067 15.27570219 65926
STARLINK-32934          
1 63200U 25048T   26126.35053818  .00022425  00000+0  82169-3 0  9993
2 63200  43.0014 119.4203 0001345 271.8401  88.2296 15.27589917 65911
STARLINK-32938          
1 63201U 25048U   26126.43776962  .00011341  00000+0  42092-3 0  9991
2 63201  43.0029 119.2136 0001781 280.7002  79.3649 15.27587284 65920
STARLINK-32935          
1 63202U 25048V   26126.45961467  .00015969  00000+0  58811-3 0  9996
2 63202  43.0021 119.3823 0001913 267.5434  92.5198 15.27605650 65920
STARLINK-32930          
1 63203U 25048W   26126.39037148  .00015783  00000+0  58162-3 0  9993
2 63203  43.0012 119.7163 0001613 272.9002  87.1665 15.27591853 65917
QPS-SAR-9 (SUSANOO-I)   
1 63205U 25050A   26126.91585571  .00004400  00000+0  33713-3 0  9993
2 63205  42.0207 330.2274 0005084 251.0285 108.9992 15.02771471 62757
SUPERVIEW NEO-3 02      
1 63208U 25051A   26126.97394161  .00008260  00000+0  33989-3 0  9999
2 63208  97.4514 206.4943 0000877  78.0053 282.1282 15.24395462 63560
TIANYAN 23              
1 63209U 25051B   26126.98181917  .00027821  00000+0  57193-3 0  9991
2 63209  97.4509 213.0015 0005383 224.3163 135.7655 15.45936473 63994
JINJUSAT-1B             
1 63210U 25052A   26126.95341105  .00012327  00000+0  39819-3 0  9998
2 63210  97.4045  23.6863 0002179 191.8334 168.2857 15.32248995 63788
NUSHSAT1                
1 63211U 25052B   26126.99366105  .00016755  00000+0  50466-3 0  9990
2 63211  97.4020  24.1608 0001890 189.0889 171.0320 15.34409340 63825
IOD-1                   
1 63212U 25052C   26126.29799369  .00041603  00000+0  76229-3 0  9991
2 63212  97.3877  26.9010 0001612 134.2308 225.9076 15.49199537 63997
TEVEL2-4                
1 63213U 25052D   26126.69086007  .00015393  00000+0  48192-3 0  9999
2 63213  97.3942  23.0522 0000766 194.8848 165.2372 15.33197233 63750
TEVEL2-5                
1 63214U 25052E   26126.64171870  .00015497  00000+0  48754-3 0  9997
2 63214  97.3939  22.9620 0000776 195.7967 164.3251 15.33042552 63745
TEVEL2-6                
1 63215U 25052F   26126.65304130  .00015759  00000+0  49629-3 0  9999
2 63215  97.3944  22.9583 0000824 208.0235 152.0963 15.33005078 63746
BOTSAT-1                
1 63216U 25052G   26126.28059585  .00008360  00000+0  32310-3 0  9999
2 63216  97.3922  20.5544 0000340 289.4512  70.6690 15.26488352 63562
TEVEL2-1                
1 63217U 25052H   26126.66839296  .00015466  00000+0  49454-3 0  9999
2 63217  97.3920  22.6454 0000443 264.1902  95.9289 15.32520912 63730
TEVEL2-3                
1 63218U 25052J   26126.59911419  .00015584  00000+0  49759-3 0  9999
2 63218  97.3919  22.5931 0000510 268.2723  91.8461 15.32565308 63723
TEVEL2-2                
1 63219U 25052K   26126.66889643  .00015227  00000+0  48688-3 0  9995
2 63219  97.3920  22.6471 0000494 269.7178  90.4007 15.32526459 63733
AEROCUBE 18A            
1 63220U 25052L   26126.60324534  .00005661  00000+0  23666-3 0  9994
2 63220  97.4007  20.6224 0002183 270.5790  89.5197 15.23997062 63565
TRANSPORTER-13 OBJECT M 
1 63221U 25052M   26126.64843727  .00003938  00000+0  17740-3 0  9990
2 63221  97.3928  19.5347 0001746 305.5719  54.5354 15.21636328 63520
AEROCUBE 18B            
1 63222U 25052N   26126.23705585  .00005918  00000+0  24806-3 0  9996
2 63222  97.4016  20.2430 0002560 281.3223  78.7726 15.23884461 63502
DROID.002               
1 63223U 25052P   26126.68313137  .00005452  00000+0  23619-3 0  9998
2 63223  97.3974  20.1648 0002139 293.0583  67.0428 15.22804885 63552
TOMORROW-S6             
1 63225U 25052R   26126.95201023  .00003594  00000+0  16008-3 0  9999
2 63225  97.4049  20.4884 0003459 285.4192  74.6662 15.22084565 63571
ETIHAD-SAT              
1 63226U 25052S   26126.27945110  .00003884  00000+0  17427-3 0  9995
2 63226  97.4004  19.5072 0003505 299.8875  60.2012 15.21781688 63467
CLARITY-1               
1 63227U 25052T   26126.90600232  .00182105  15463-4  39672-3 0  9993
2 63227  97.4127  44.3069 0004730 130.7101 229.4587 15.98277757 65089
TRANSPORTER-13 OBJECT U 
1 63228U 25052U   26126.25320059  .00005981  00000+0  25619-3 0  9996
2 63228  97.3962  19.6371 0003492 311.6953  48.3984 15.23145223 63487
SPACEEYE-T1             
1 63229U 25052V   26126.98237222  .00004326  00000+0  19178-3 0  9991
2 63229  97.3991  20.1916 0003258 310.1906  49.9045 15.22126892 63579
ION SCV-017             
1 63230U 25052W   26126.63768543  .00004186  00000+0  15756-3 0  9992
2 63230  97.3948  22.1761 0021685 192.3395 167.7316 15.27458031 63690
M-SEL/CORTEZ            
1 63231U 25052X   26126.95076867  .00006578  00000+0  26236-3 0  9991
2 63231  97.3960  20.9488 0003217 310.9594  49.1365 15.25518167 63633
SPHINX/FRAZIER          
1 63232U 25052Y   26126.43265192  .00005990  00000+0  25411-3 0  9997
2 63232  97.3991  20.0213 0004189 308.0216  52.0642 15.23470470 63513
LIZZIESAT-3 (LS-3)      
1 63233U 25052Z   26126.66245023  .00004913  00000+0  22220-3 0  9993
2 63233  97.3957  19.2371 0004607 321.7944  38.2964 15.21374280 63496
TOMORROW-S5             
1 63234U 25052AA  26126.26683091  .00004387  00000+0  19471-3 0  9990
2 63234  97.4028  19.6124 0005294 309.6449  50.4320 15.22075704 63464
OTP-2                   
1 63235U 25052AB  26126.91887123  .00006202  00000+0  26329-3 0  9993
2 63235  97.3908  19.9719 0004971 322.1217  37.9670 15.23429250 63589
ORBASTRO-TR5            
1 63236U 25052AC  26126.41629660  .00003949  00000+0  17746-3 0  9997
2 63236  97.3882  18.8397 0002346 322.8590  37.2483 15.21718062 63468
TEVEL2-9                
1 63237U 25052AD  26125.67911195  .00017826  00000+0  60369-3 0  9990
2 63237  97.3982  21.1221 0004278 302.6918  57.3910 15.30631391 63523
TEVEL2-7                
1 63238U 25052AE  26126.69312019  .00011715  00000+0  40080-3 0  9993
2 63238  97.3982  22.0652 0004319 297.8273  62.2530 15.30397392 63676
TEVEL2-8                
1 63239U 25052AF  26126.24320891  .00015003  00000+0  51282-3 0  9992
2 63239  97.3983  21.5951 0004304 300.9661  59.1156 15.30368656 63608
AL MUNTHER              
1 63240U 25052AG  26126.21788619  .00016108  00000+0  54785-3 0  9995
2 63240  97.3925  21.1794 0004436 309.2899  50.7948 15.30514365 63592
TRANSPORTER-13 OBJECT AH
1 63241U 25052AH  26126.93525836  .00008205  00000+0  31346-3 0  9992
2 63241  97.3886  20.8008 0005316 316.9976  43.0847 15.26867688 63645
HERMES-1                
1 63242U 25052AJ  26126.45850881  .00004807  00000+0  21839-3 0  9991
2 63242  97.3945  18.8359 0006583 345.4157  14.6888 15.21220889 63452
HERMES-2                
1 63243U 25052AK  26126.14509624  .00011531  00000+0  41170-3 0  9996
2 63243  97.3932  21.3209 0002492 253.9434 106.1531 15.29014836 63596
PANDORE                 
1 63244U 25052AL  26126.65301445  .00003480  00000+0  32492-3 0  9995
2 63244  97.6944  18.8103 0004463 357.8859   2.2342 14.94809722 62404
BUCCANEER MM            
1 63245U 25052AM  26126.92485914  .00002864  00000+0  27075-3 0  9996
2 63245  97.6913  18.7753 0004289  17.7071 342.4299 14.94458766 62436
LEMUR-2-LEIA-PHILIP     
1 63246U 25052AN  26126.43424797  .00001592  00000+0  14269-3 0  9993
2 63246  97.6871  19.0820 0004313  29.9703 330.1766 14.97193750 62428
EZIE-A                  
1 63247U 25052AP  26126.27432770  .00004067  00000+0  35853-3 0  9998
2 63247  97.6942  19.1086 0003318  10.8028 349.3265 14.96984636 62398
LEMUR-2-LIA-MARTIN      
1 63248U 25052AQ  26126.98372502  .00004852  00000+0  42175-3 0  9990
2 63248  97.6931  20.0437 0002696  11.0652 349.0629 14.97443637 62519
EZIE-C                  
1 63249U 25052AR  26126.66905968  .00004424  00000+0  38944-3 0  9998
2 63249  97.6924  19.4036 0003699  25.0208 335.1193 14.96988493 62453
EZIE-B                  
1 63250U 25052AS  26126.66273248  .00004674  00000+0  41137-3 0  9994
2 63250  97.6955  19.5524 0003436   7.2525 352.8746 14.96977019 62457
UVSQ-SAT NG             
1 63251U 25052AT  26126.63720764  .00003422  00000+0  31650-3 0  9991
2 63251  97.6892  18.9029 0003493  33.8238 326.3205 14.95198686 62427
ARVAKER-1               
1 63252U 25052AU  26126.63729264  .00002403  00000+0  22835-3 0  9999
2 63252  97.6912  18.6847 0002979  32.3876 327.7526 14.94403867 62404
ICEYE-X48               
1 63253U 25052AV  26126.63776485  .00003310  00000+0  28715-3 0  9998
2 63253  97.6905  19.4588 0002229  32.8409 327.2951 14.97741264 62454
YAM-8                   
1 63254U 25052AW  26126.99712187  .00004902  00000+0  29295-3 0  9999
2 63254  97.6971  28.1932 0002547  33.0688 327.0701 15.11553962 63043
ICEYE-X50               
1 63255U 25052AX  26127.00088604  .00001402  00000+0  13295-3 0  9998
2 63255  97.6937  19.6829 0002361  32.7389 327.3977 14.95147409 62496
FIRESAT 0 (MUSAT-4)     
1 63256U 25052AY  26126.98208613  .00001272  00000+0  12818-3 0  9994
2 63256  97.7005  19.0500 0002123  74.1051 286.0402 14.92846594 62443
